[{"OBJECT_NAME":"KHALIFASAT","OBJECT_ID":"2018-084F","EPOCH":"2026-03-09T22:37:07.705056","MEAN_MOTION":15.0097364,"ECCENTRICITY":0.00062701,"INCLINATION":98.0864,"RA_OF_ASC_NODE":247.4233,"ARG_OF_PERICENTER":83.8573,"MEAN_ANOMALY":276.3364,"EPHEMERIS_TYPE":0,"CLASSIFICATION_TYPE":"U","NORAD_CAT_ID":43676,"ELEMENT_SET_NO":999,"REV_AT_EPOCH":40088,"BSTAR":0.00043724412,"MEAN_MOTION_DOT":5.516e-5,"MEAN_MOTION_DDOT":0},{"OBJECT_NAME":"STARLINK-35498","OBJECT_ID":"2025-293Q","EPOCH":"2026-03-09T10:46:11.636256","MEAN_MOTION":14.98325601,"ECCENTRICITY":0.00029353,"INCLINATION":70.0006,"RA_OF_ASC_NODE":94.9889,"ARG_OF_PERICENTER":261.5962,"MEAN_ANOMALY":98.4864,"EPHEMERIS_TYPE":0,"CLASSIFICATION_TYPE":"U","NORAD_CAT_ID":67017,"ELEMENT_SET_NO":999,"REV_AT_EPOCH":1485,"BSTAR":-0.0010476463,"MEAN_MOTION_DOT":-0.00012569,"MEAN_MOTION_DDOT":0}]
